1 27663U 03005A   18040.54620366 -.00000095  00000-0  00000+0 0  9991
2 27663  56.6082 335.6366 0097394  25.5124 156.0908  2.00574883110149
1 27663U 03005A   18040.54620366 -.00000095  00000-0  00000-0 0  9992
2 27663  56.6082 335.6366 0097394  25.5124 156.0908  2.00574883110149
1 27663U 03005A   18041.64597970 -.00000092  00000-0  00000-0 0  9995
2 27663  56.6076 335.5937 0097445  25.5366 230.1994  2.00574833110166
1 27663U 03005A   18042.17925194 -.00000090  00000-0  00000+0 0  9994
2 27663  56.6074 335.5729 0097470  25.5513 255.2530  2.00574807110171
1 27663U 03005A   18042.65820253 -.00000087  00000-0  00000+0 0  9993
2 27663  56.6071 335.5542 0097491  25.5647 241.0831  2.00574784110184
1 27663U 03005A   18042.65820253 -.00000087  00000-0  00000-0 0  9994
2 27663  56.6071 335.5542 0097491  25.5647 241.0831  2.00574784110184
1 27663U 03005A   18043.59958713 -.00000081  00000-0  00000-0 0  9995
2 27663  56.6066 335.5175 0097528  25.5897 200.8184  2.00574731110207
1 27663U 03005A   18043.66556109 -.00000081  00000-0  00000-0 0  9996
2 27663  56.6066 335.5150 0097532  25.5909 248.4559  2.00574725110206
1 27663U 03005A   18044.14474861 -.00000077  00000-0  00000+0 0  9998
2 27663  56.6064 335.4963 0097549  25.6032 234.4580  2.00574696110218
1 27663U 03005A   18044.91445490 -.00000072  00000-0  00000-0 0  9995
2 27663  56.6060 335.4663 0097574  25.6275  70.2272  2.00574646110239
1 27663U 03005A   18045.15564012 -.00000070  00000-0  00000+0 0  9991
2 27663  56.6058 335.4569 0097586  25.6303 244.3807  2.00574626110232
1 27663U 03005A   18045.63029918 -.00000067  00000-0  00000-0 0  9992
2 27663  56.6056 335.4384 0097603  25.6422 227.1130  2.00574590110246
1 27663U 03005A   18046.09391308 -.00000063  00000-0  00000+0 0  9993
2 27663  56.6054 335.4203 0097618  25.6540 201.8699  2.00574556110253
1 27663U 03005A   18047.11101358 -.00000057  00000-0  00000+0 0  9994
2 27663  56.6048 335.3807 0097655  25.6787 216.2779  2.00574472110277
1 27663U 03005A   18047.65456161 -.00000055  00000-0  00000+0 0  9996
2 27663  56.6046 335.3595 0097679  25.6930 248.7512  2.00574425110289
1 27663U 03005A   18047.65456161 -.00000055  00000-0  00000-0 0  9997
2 27663  56.6046 335.3595 0097679  25.6930 248.7512  2.00574425110289
1 27663U 03005A   18049.46421191 -.00000049  00000-0  00000+0 0  9995
2 27663  56.6037 335.2889 0097739  25.7402 115.4242  2.00574261110318
1 27663U 03005A   18050.07430542 -.00000049  00000-0  00000+0 0  9994
2 27663  56.6033 335.2651 0097768  25.7585 195.9446  2.00574205110334
1 27663U 03005A   18050.62684934 -.00000049  00000-0  00000-0 0  9992
2 27663  56.6031 335.2436 0097790  25.7752 234.9109  2.00574152110346
1 27663U 03005A   18051.09920328 -.00000050  00000-0  00000+0 0  9995
2 27663  56.6028 335.2251 0097806  25.7882 215.9770  2.00574112110359
1 27663U 03005A   18051.63928392 -.00000052  00000-0  00000-0 0  9997
2 27663  56.6025 335.2040 0097826  25.8049 245.9437  2.00574061110367
1 27663U 03005A   18052.11365212 -.00000053  00000-0  00000+0 0  9997
2 27663  56.6023 335.1855 0097842  25.8181 228.4640  2.00574021110372
1 27663U 03005A   18052.65148234 -.00000055  00000-0  00000-0 0  9992
2 27663  56.6020 335.1645 0097862  25.8362 256.8040  2.00573973110384
1 27663U 03005A   18053.12115786 -.00000057  00000-0  00000+0 0  9992
2 27663  56.6018 335.1462 0097877  25.8491 235.9360  2.00573935110399
1 27663U 03005A   18053.59553764 -.00000059  00000-0  00000-0 0  9998
2 27663  56.6015 335.1277 0097894  25.8632 218.4636  2.00573897110407
1 27663U 03005A   18054.13923821 -.00000061  00000-0  00000+0 0  9996
2 27663  56.6012 335.1064 0097917  25.8837 251.0400  2.00573851110414
1 27663U 03005A   18054.61302438 -.00000063  00000-0  00000-0 0  9997
2 27663  56.6010 335.0879 0097934  25.8976 233.1390  2.00573815110428
1 27663U 03005A   18055.07217958 -.00000064  00000-0  00000-0 0  9991
2 27663  56.6007 335.0700 0097950  25.9111 204.6735  2.00573781110436
1 27663U 03005A   18055.54891529 -.00000066  00000-0  00000+0 0  9996
2 27663  56.6005 335.0513 0097964  25.9225 188.9048  2.00573749110443
1 27663U 03005A   18056.56044782 -.00000068  00000-0  00000+0 0  9992
2 27663  56.6000 335.0118 0097996  25.9489 199.2883  2.00573681110465
1 27663U 03005A   18056.63987683 -.00000068  00000-0  00000-0 0  9997
2 27663  56.5999 335.0087 0098000  25.9532 256.6383  2.00573674110467
1 27663U 03005A   18057.11117647 -.00000068  00000-0  00000+0 0  9995
2 27663  56.5997 334.9903 0098017  25.9662 236.9424  2.00573647110470
1 27663U 03005A   18057.57426351 -.00000068  00000-0  00000+0 0  9990
2 27663  56.5995 334.9722 0098032  25.9782 211.3174  2.00573620110488
1 27663U 03005A   18057.57426351 -.00000068  00000-0  00000-0 0  9991
2 27663  56.5995 334.9722 0098032  25.9782 211.3174  2.00573620110488
1 27663U 03005A   18059.13512720 -.00000068  00000-0  00000+0 0  9990
2 27663  56.5987 334.9113 0098093  26.0314 258.3357  2.00573536110517
1 27663U 03005A   18060.08389802 -.00000068  00000-0  00000+0 0  9999
2 27663  56.5982 334.8743 0098125  26.0622 223.3949  2.00573492110530
1 27663U 03005A   18061.09324159 -.00000070  00000-0  00000+0 0  9998
2 27663  56.5977 334.8349 0098160  26.0946 232.1909  2.00573451110555
1 27663U 03005A   18061.56360957 -.00000071  00000-0  00000-0 0  9998
2 27663  56.5974 334.8165 0098176  26.1089 211.8205  2.00573432110567
1 27663U 03005A   18062.10909338 -.00000072  00000-0  00000+0 0  9991
2 27663  56.5971 334.7952 0098195  26.1277 245.6853  2.00573413110571
1 27663U 03005A   18062.57532919 -.00000074  00000-0  00000+0 0  9991
2 27663  56.5969 334.7770 0098211  26.1420 222.3311  2.00573396110587
1 27663U 03005A   18062.57532919 -.00000074  00000-0  00000-0 0  9992
2 27663  56.5969 334.7770 0098211  26.1420 222.3311  2.00573396110587
1 27663U 03005A   18063.58745816 -.00000079  00000-0  00000-0 0  9991
2 27663  56.5964 334.7375 0098244  26.1714 233.1409  2.00573363110600
1 27663U 03005A   18064.13507751 -.00000081  00000-0  00000+0 0  9999
2 27663  56.5961 334.7161 0098262  26.1884 268.5494  2.00573343110613
1 27663U 03005A   18065.54484992 -.00000087  00000-0  00000+0 0  9992
2 27663  56.5954 334.6610 0098309  26.2288 206.4785  2.00573299110641
1 27663U 03005A   18066.55580552 -.00000089  00000-0  00000-0 0  9996
2 27663  56.5948 334.6215 0098343  26.2569 216.4419  2.00573264110664
1 27663U 03005A   18067.10391373 -.00000090  00000-0  00000+0 0  9990
2 27663  56.5945 334.6001 0098360  26.2718 252.2053  2.00573245110671
1 27663U 03005A   18067.10391373 -.00000090  00000-0  00000-0 0  9991
2 27663  56.5945 334.6001 0098360  26.2718 252.2053  2.00573245110671
1 27663U 03005A   18068.12302536 -.00000089  00000-0  00000+0 0  9994
2 27663  56.5940 334.5603 0098392  26.2980 268.0594  2.00573204110691
1 27663U 03005A   18069.05676135 -.00000085  00000-0  00000+0 0  9992
2 27663  56.5936 334.5238 0098424  26.3261 222.2635  2.00573163110714
1 27663U 03005A   18070.54129972 -.00000077  00000-0  00000+0 0  9991
2 27663  56.5928 334.4658 0098469  26.3731 214.1717  2.00573089110742
1 27663U 03005A   18070.54129972 -.00000077  00000-0  00000-0 0  9992
2 27663  56.5928 334.4658 0098469  26.3731 214.1717  2.00573089110742
1 27663U 03005A   18071.55724212 -.00000069  00000-0  00000-0 0  9993
2 27663  56.5923 334.4262 0098498  26.4046 227.7313  2.00573028110767
1 27663U 03005A   18072.10738223 -.00000065  00000-0  00000+0 0  9997
2 27663  56.5921 334.4047 0098513  26.4203 264.9604  2.00572992110775
1 27663U 03005A   18074.06400133 -.00000051  00000-0  00000+0 0  9995
2 27663  56.5911 334.3283 0098563  26.4748 237.7398  2.00572846110815
1 27663U 03005A   18075.54381414 -.00000044  00000-0  00000-0 0  9992
2 27663  56.5903 334.2705 0098598  26.5147 226.2412  2.00572722110842
1 27663U 03005A   18075.61762184 -.00000044  00000-0  00000+0 0  9996
2 27663  56.5903 334.2676 0098597  26.5129 279.5380  2.00572716110846
1 27663U 03005A   18075.61762184 -.00000044  00000-0  00000-0 0  9997
2 27663  56.5903 334.2676 0098597  26.5129 279.5380  2.00572716110846
1 27663U 03005A   18076.55808242 -.00000041  00000-0  00000-0 0  9994
2 27663  56.5898 334.2308 0098623  26.5385 238.5986  2.00572631110860
1 27663U 03005A   18077.10566583 -.00000040  00000-0  00000+0 0  9993
2 27663  56.5895 334.2095 0098648  26.5557 273.9796  2.00572581110875
1 27663U 03005A   18078.04719398 -.00000041  00000-0  00000+0 0  9992
2 27663  56.5891 334.1727 0098678  26.5822 233.8100  2.00572495110890
1 27663U 03005A   18081.33574567 -.00000050  00000-0  00000+0 0  9995
2 27663  56.5875 334.0441 0098732  26.6902  88.2909  2.00572212110958
1 27663U 03005A   18082.57983749 -.00000054  00000-0  00000-0 0  9993
2 27663  56.5869 333.9955 0098762  26.7280 266.5831  2.00572118110985
1 27663U 03005A   18083.04750300 -.00000055  00000-0  00000+0 0  9991
2 27663  56.5867 333.9771 0098772  26.7400 244.2615  2.00572085110991
1 27663U 03005A   18084.60382205 -.00000056  00000-0  00000-0 0  9991
2 27663  56.5859 333.9163 0098801  26.7813 288.0017  2.00571985111023
1 27663U 03005A   18085.07913278 -.00000056  00000-0  00000+0 0  9992
2 27663  56.5857 333.8977 0098814  26.7951 271.1985  2.00571957111037
1 27663U 03005A   18085.07913278 -.00000056  00000-0  00000-0 0  9993
2 27663  56.5857 333.8977 0098814  26.7951 271.1985  2.00571957111037
1 27663U 03005A   18087.41712691 -.00000056  00000-0  00000+0 0  9998
2 27663  56.5846 333.8062 0098868  26.8656 159.3374  2.00571841111077
1 27663U 03005A   18087.80451953 -.00000057  00000-0  00000-0 0  9994
2 27663  56.5844 333.7911 0098875  26.8775  79.0523  2.00571824111094
1 27663U 03005A   18088.58953690 -.00000058  00000-0  00000-0 0  9996
2 27663  56.5840 333.7603 0098897  26.9056 285.8661  2.00571790111109
1 27663U 03005A   18089.44004227 -.00000061  00000-0  00000+0 0  9998
2 27663  56.5836 333.7270 0098914  26.9288 179.9720  2.00571760111118
